[{"OBJECT_NAME":"CAS-2T & KS-1Q","OBJECT_ID":"2016-066G","EPOCH":"2026-03-09T16:58:07.740192","MEAN_MOTION":14.44469485,"ECCENTRICITY":0.03436678,"INCLINATION":98.388,"RA_OF_ASC_NODE":145.5568,"ARG_OF_PERICENTER":71.4405,"MEAN_ANOMALY":292.3791,"EPHEMERIS_TYPE":0,"CLASSIFICATION_TYPE":"U","NORAD_CAT_ID":41847,"ELEMENT_SET_NO":999,"REV_AT_EPOCH":49043,"BSTAR":0.00023398968,"MEAN_MOTION_DOT":1.617e-5,"MEAN_MOTION_DDOT":0},{"OBJECT_NAME":"FENGYUN 1C DEB","OBJECT_ID":"1999-025BXY","EPOCH":"2026-03-08T22:51:27.882720","MEAN_MOTION":14.2781374,"ECCENTRICITY":0.00663366,"INCLINATION":98.9533,"RA_OF_ASC_NODE":327.2692,"ARG_OF_PERICENTER":98.6666,"MEAN_ANOMALY":262.2036,"EPHEMERIS_TYPE":0,"CLASSIFICATION_TYPE":"U","NORAD_CAT_ID":31533,"ELEMENT_SET_NO":999,"REV_AT_EPOCH":67353,"BSTAR":0.00040705657,"MEAN_MOTION_DOT":9.84e-6,"MEAN_MOTION_DDOT":0}]
